ISS (ZARYA)             
1 25544U 98067A   25351.05542497  .00007770  00000+0  14583-3 0  9996
2 25544  51.6309 121.1077 0003173 260.4156  99.6474 15.49629327543529
CSS (TIANHE)            
1 48274U 21035A   25351.32618742  .00020139  00000+0  25118-3 0  9999
2 48274  41.4681 348.8601 0007759  70.4303 289.7373 15.59373916264747
ISS (NAUKA)             
1 49044U 21066A   25351.05542497  .00007770  00000+0  14583-3 0  9992
2 49044  51.6309 121.1077 0003173 260.4156  99.6474 15.49629327230444
FREGAT DEB              
1 49271U 11037PF  25349.97149260  .00003730  00000+0  85401-2 0  9998
2 49271  51.6469 189.8745 0862473 230.7116 121.4133 12.34468246202333
CSS (WENTIAN)           
1 53239U 22085A   25351.32618742  .00020139  00000+0  25118-3 0  9992
2 53239  41.4681 348.8601 0007759  70.4303 289.7373 15.59373916173844
CSS (MENGTIAN)          
1 54216U 22143A   25351.32618742  .00020139  00000+0  25118-3 0  9993
2 54216  41.4681 348.8601 0007759  70.4303 289.7373 15.59373916158641
SHENZHOU-20 (SZ-20)     
1 63632U 25082A   25351.32618742  .00020139  00000+0  25118-3 0  9990
2 63632  41.4681 348.8601 0007759  70.4303 289.7373 15.59373916255304
PROGRESS-MS 31          
1 64751U 25146A   25351.05542497  .00007770  00000+0  14583-3 0  9997
2 64751  51.6309 121.1077 0003173 260.4156  99.6474 15.49629327  6751
TIANZHOU-9              
1 64786U 25149A   25351.32618742  .00020139  00000+0  25118-3 0  9995
2 64786  41.4681 348.8601 0007759  70.4303 289.7373 15.59373916255305
CREW DRAGON 11          
1 65077U 25166A   25351.05542497  .00007770  00000+0  14583-3 0  9991
2 65077  51.6309 121.1077 0003173 260.4156  99.6474 15.49629327  2142
DRAGON CRS-33           
1 65304U 25186A   25351.05542497  .00007770  00000+0  14583-3 0  9996
2 65304  51.6309 121.1077 0003173 260.4156  99.6474 15.49629327   110
PROGRESS-MS 32          
1 65586U 25204A   25351.05542497  .00007770  00000+0  14583-3 0  9999
2 65586  51.6309 121.1077 0003173 260.4156  99.6474 15.49629327   279
